STARLINK-11543 [DTC]    
1 62981U 25031A   25068.33319757  .00010234  00000+0  61554-4 0  9990
2 62981  42.9968  46.2012 0001808 252.6792 107.3880 15.77874230  5254
STARLINK-11458 [DTC]    
1 62982U 25031B   25068.32832351  .00005537  00000+0  34643-4 0  9999
2 62982  42.9965  46.1604 0000766 312.5555  47.5250 15.77867290  5257
STARLINK-11417 [DTC]    
1 62983U 25031C   25068.19684338  .00004567  00000+0  29082-4 0  9998
2 62983  42.9961  46.8876 0001424 244.2890 115.7833 15.77863976  5237
STARLINK-11544 [DTC]    
1 62984U 25031D   25068.31856088  .00003498  00000+0  22935-4 0  9998
2 62984  42.9948  46.0797 0000751 273.2055  86.8730 15.77870616  5226
STARLINK-11582 [DTC]    
1 62985U 25031E   25068.31368052  .00004104  00000+0  26421-4 0  9997
2 62985  42.9971  46.0413 0001526 283.9414  76.1286 15.77867798  5254
STARLINK-11571 [DTC]    
1 62986U 25031F   25068.30877554  .00013044  00000+0  77515-4 0  9992
2 62986  43.0006  45.9991 0001788 286.3678  73.6996 15.77911735  5255
STARLINK-11539 [DTC]    
1 62987U 25031G   25067.98742443  .00011192  00000+0  67046-4 0  9994
2 62987  42.9987  47.8890 0001518 267.0624  93.0073 15.77872984  5208
STARLINK-11542 [DTC]    
1 62988U 25031H   25068.93204007  .00001685  00000+0  12543-4 0  9998
2 62988  43.0004  42.0665 0001472 268.8266  91.2435 15.77860297  5327
STARLINK-11573 [DTC]    
1 62989U 25031J   25068.29415686  .00007082  00000+0  43484-4 0  9990
2 62989  43.0006  45.8826 0001864 266.9342  93.1315 15.77879667  5227
STARLINK-11572 [DTC]    
1 62990U 25031K   25068.92227965  .00020665  00000+0  12130-3 0  9998
2 62990  42.9991  41.9848 0001922 247.8678 112.1988 15.77860926  5356
STARLINK-11583 [DTC]    
1 62991U 25031L   25068.00002315  .00004350  00000+0  27852-4 0  9999
2 62991  42.9996  47.5344 0001443 263.4146 279.2789 15.77854414  5233
STARLINK-11570 [DTC]    
1 62992U 25031M   25068.00002315  .00011425  00000+0  68463-4 0  9994
2 62992  42.9996  47.4647 0001494 257.1595 313.3001 15.77845377  5227
STARLINK-11576 [DTC]    
1 62993U 25031N   25068.91668981  .00137680  00000+0  78499-3 0  9993
2 62993  42.9997  41.8112 0001377 269.6405 141.9288 15.77751252  5378
STARLINK-32899          
1 62994U 25031P   25068.91668981 -.00132557  00000+0 -32133-2 0  9998
2 62994  42.9999  45.0522 0001251 266.7392 274.3182 15.40775670  5314
STARLINK-32819          
1 62995U 25031Q   25068.91668981 -.01497182  00000+0 -36508-1 0  9997
2 62995  42.9999  44.9994 0001208 264.5459 298.0595 15.43163170  5329
STARLINK-32703          
1 62996U 25031R   25068.91668981  .00047338  00000+0  11339-2 0  9995
2 62996  43.0002  45.1759 0002177 234.5726 254.7640 15.40687457  5314
STARLINK-32881          
1 62997U 25031S   25068.00002315 -.00002646  00000+0 -39305-4 0  9999
2 62997  43.0002  50.2729 0001430 264.3054 251.5672 15.50569247  5176
STARLINK-32898          
1 62998U 25031T   25068.91668981  .00074508  00000+0  17767-2 0  9997
2 62998  43.0000  45.1108 0000922 264.2389 251.9879 15.40646252  5314
STARLINK-32658          
1 62999U 25031U   25067.00003472  .00032444  00000+0  55694-3 0  9990
2 62999  43.0004  56.1096 0001329 262.1706  68.8390 15.50559765  5012
STARLINK-32673          
1 63000U 25031V   25068.00002315 -.01437078  00000+0 -27255-1 0  9995
2 63000  43.0001  50.2568 0001137 252.5637 269.0426 15.50732544  4174
STARLINK-32437          
1 63001U 25031W   25068.91668981 -.01496971  00000+0 -33974-1 0  9995
2 63001  43.0000  44.9589 0001363 262.8149 316.5120 15.45255466  4288
2025-009DM              
1 63002U 25009DM  25068.76497387  .00042372  00000+0  19804-2 0  9990
2 63002  97.4483 150.6283 0001816  74.4119 285.7316 15.19653639 65826
FOSSASAT-2E20 (TAT-O)   
1 63003U 25009DN  25068.77046836  .00006523  00000+0  32143-3 0  9991
2 63003  97.3591 150.1066 0004614 152.3210 207.8271 15.18268764 65822
2025-009DP              
1 63004U 25009DP  25068.46366073  .00095132  00000+0  40850-2 0  9993
2 63004  97.4495 150.4280 0000312 117.1870 242.9398 15.22287537  8135
STARLINK-11448 [DTC]    
1 63005U 25032A   25068.18046692  .00022927  00000+0  13389-3 0  9991
2 63005  42.9961 241.6640 0004515 259.8929 100.1432 15.77907527  4688
STARLINK-11553 [DTC]    
1 63006U 25032B   25068.17559117  .00002760  00000+0  18703-4 0  9991
2 63006  42.9971 241.6239 0002352 269.7233  90.3368 15.77879726  4686
STARLINK-11526 [DTC]    
1 63007U 25032C   25068.80371434  .00001260  00000+0  10107-4 0  9990
2 63007  42.9973 237.7289 0002484 261.2088  98.8501 15.77860686  4790
STARLINK-11405 [DTC]    
1 63008U 25032D   25067.53284923 -.00000932  00000+0 -24878-5 0  9994
2 63008  42.9975 245.4029 0001844 262.6355  97.4305 15.77861323  4440
STARLINK-11586 [DTC]    
1 63009U 25032E   25067.00003472  .00022206  00000+0  13019-3 0  9994
2 63009  42.9993 248.5814 0001974 270.9561 326.6001 15.77846051  4500
STARLINK-11574 [DTC]    
1 63010U 25032F   25068.00002315 -.00048088  00000+0 -27458-3 0  9992
2 63010  42.9978 242.4208 0001854 269.2473 283.2586 15.77890620  4681
STARLINK-11580 [DTC]    
1 63011U 25032G   25068.91668981  .00088515  00000+0  50825-3 0  9991
2 63011  42.9981 236.7680 0001711 281.4447 112.1742 15.77767130  4622
STARLINK-11449 [DTC]    
1 63012U 25032H   25068.91668981  .00051632  00000+0  29827-3 0  9990
2 63012  42.9986 236.6991 0002121 279.1003 142.2091 15.77817404  4834
STARLINK-11577 [DTC]    
1 63013U 25032J   25068.91668981  .00023278  00000+0  13633-3 0  9994
2 63013  42.9993 236.6294 0001802 276.5350 172.5012 15.77845250  4839
STARLINK-11578 [DTC]    
1 63014U 25032K   25066.91668981 -.00997603  00000+0 -53342-2 0  9997
2 63014  43.0026 248.7758 0001765 266.7003 342.4459 15.81925996  4487
STARLINK-11541 [DTC]    
1 63015U 25032L   25067.50252138 -.00287472  00000+0 -13078-2 0  9995
2 63015  43.0020 245.1568 0002552 268.7135  91.3445 15.83575783  4601
STARLINK-11545 [DTC]    
1 63016U 25032M   25068.91668981 -.00976375  00000+0 -51306-2 0  9992
2 63016  43.0017 236.4604 0001916 281.5771 235.3337 15.82238009  4835
STARLINK-11400 [DTC]    
1 63017U 25032N   25068.88809689 -.00034774  00000+0 -14591-3 0  9995
2 63017  43.0015 236.6158 0002522 251.7252 108.3346 15.84371013  4819
STARLINK-32870          
1 63018U 25032P   25068.91668981  .00070235  00000+0  11939-2 0  9990
2 63018  42.9987 238.3800 0001514 273.6430 188.2515 15.50541170  4844
STARLINK-32872          
1 63019U 25032Q   25068.91668981  .00081284  00000+0  13792-2 0  9996
2 63019  42.9987 238.3753 0001572 274.7286 189.0822 15.50533959  4843
STARLINK-32677          
1 63020U 25032R   25068.91668981  .00058805  00000+0  10017-2 0  9998
2 63020  42.9987 238.3701 0001567 275.9295 189.7973 15.50549834  4848
STARLINK-32929          
1 63021U 25032S   25068.91668981  .00059006  00000+0  10052-2 0  9992
2 63021  42.9987 238.3652 0001538 274.6980 192.9443 15.50546550  4849
STARLINK-32944          
1 63022U 25032T   25068.91668981 -.01460786  00000+0 -28494-1 0  9995
2 63022  42.9990 238.3624 0001428 280.6210 188.3229 15.49502570  4847
STARLINK-32943          
1 63023U 25032U   25068.91668981  .00062016  00000+0  10558-2 0  9990
2 63023  42.9987 238.3561 0001533 274.6584 196.8212 15.50545706  4844
STARLINK-32803          
1 63024U 25032V   25068.91668981  .00061361  00000+0  10448-2 0  9991
2 63024  42.9987 238.3508 0001549 274.8282 198.5672 15.50545695  4633
STARLINK-32926          
1 63025U 25032W   25068.91668981  .00056597  00000+0  96471-3 0  9998
2 63025  42.9987 238.3463 0001524 276.4657 198.8489 15.50546004  4848
ELECTRON KICK STAGE R/B 
1 63026U 25033A   25068.86310830  .00048325  00000+0  15341-2 0  9997
2 63026  59.0020  30.9053 0009680  20.2173 339.9282 15.32278385  2892
GLOBAL-31               
1 63027U 25033B   25068.86695534  .00023316  00000+0  76424-3 0  9998
2 63027  59.0035  30.9333 0009905 357.3341   2.7677 15.31584987  2891
STARLINK-32798          
1 63029U 25034A   25068.91668981 -.01396938  00000+0 -13033-1 0  9994
2 63029  53.1604 168.9100 0001183  54.8206  70.5364 15.69679051  4259
STARLINK-32779          
1 63030U 25034B   25068.91668981 -.01395421  00000+0 -13017-1 0  9994
2 63030  53.1605 168.9058 0001087  56.9863  70.2855 15.69680062  4255
STARLINK-32716          
1 63031U 25034C   25068.91668981 -.01396071  00000+0 -13025-1 0  9996
2 63031  53.1605 168.9020 0001175  55.4168  73.7774 15.69677062  4259
STARLINK-32776          
1 63032U 25034D   25068.91668981 -.01398441  00000+0 -13048-1 0  9995
2 63032  53.1605 168.8978 0001240  59.0503  72.0573 15.69680014  4257
STARLINK-32772          
1 63033U 25034E   25068.91668981 -.01397643  00000+0 -13040-1 0  9991
2 63033  53.1596 168.8938 0001167  57.1028  75.9205 15.69679987  4253
STARLINK-32830          
1 63034U 25034F   25068.91668981 -.01399013  00000+0 -13055-1 0  9991
2 63034  53.1596 168.8857 0001019  61.0431  75.8154 15.69680478  4251
STARLINK-32801          
1 63035U 25034G   25068.91668981 -.01392735  00000+0 -12991-1 0  9994
2 63035  53.1596 168.8897 0001230  55.2935  79.6514 15.69674360  4159
STARLINK-32818          
1 63036U 25034H   25068.91668981 -.01394320  00000+0 -13007-1 0  9996
2 63036  53.1597 168.8816 0001090  61.3082  77.4685 15.69677067  4250
STARLINK-32810          
1 63037U 25034J   25068.91668981 -.01398010  00000+0 -13044-1 0  9998
2 63037  53.1598 168.8774 0001076  55.9202  84.7694 15.69680685  4253
STARLINK-32812          
1 63038U 25034K   25068.91668981 -.01398902  00000+0 -13054-1 0  9990
2 63038  53.1599 168.8216 0001120  60.1509 107.3785 15.69679164  4156
STARLINK-32811          
1 63039U 25034L   25068.91668981 -.01392058  00000+0 -12983-1 0  9997
2 63039  53.1598 168.8735 0001092  56.6820  85.9252 15.69677363  4155
STARLINK-32832          
1 63040U 25034M   25068.91668981 -.01383046  00000+0 -12895-1 0  9998
2 63040  53.1596 168.8698 0001461  69.3098  75.2333 15.69660909  4151
STARLINK-32820          
1 63041U 25034N   25068.91668981 -.01391739  00000+0 -12980-1 0  9992
2 63041  53.1598 168.8654 0001099  58.1401  88.3018 15.69676622  4151
